STARLINK-11562 [DTC]    
1 62918C 25027M   26188.64979167 -.00025276  00000+0 -19638-3 0  1889
2 62918  42.9997 344.3939 0001589 289.7276 330.2002 15.70843529    12
STARLINK-11457 [DTC]    
1 62919C 25027N   26188.63243056 -.00047083  00000+0 -36571-3 0  1885
2 62919  42.9999 344.3485 0001640 268.2977 313.4581 15.70860546    12
STARLINK-32921          
1 62920C 25027P   26188.71993056 -.00018879  00000+0 -68372-3 0  1883
2 62920  43.0023 170.8782 0001909 280.7399 340.3874 15.27590971    19
STARLINK-32917          
1 62921C 25027Q   26188.64284722 -.00030947  00000+0 -11208-2 0  1884
2 62921  43.0012 171.4923 0001418 265.8492 213.0370 15.27597237    14
STARLINK-32916          
1 62922C 25027R   26188.66576389 -.00036235  00000+0 -13124-2 0  1885
2 62922  43.0025 171.2282 0001333 266.0789  35.5862 15.27597555    19
STARLINK-32905          
1 62923C 25027S   26188.68104167 -.00035385  00000+0 -12795-2 0  1887
2 62923  43.0001 171.4292 0001484 253.4536  12.0923 15.27651045    17
STARLINK-32871          
1 62924C 25027T   26188.67756944 -.00033097  00000+0 -11985-2 0  1881
2 62924  43.0017 171.2407 0001440 271.7818  59.5111 15.27601378    18
STARLINK-32920          
1 62925C 25027U   26188.65256944 -.00036984  00000+0 -13392-2 0  1887
2 62925  43.0021 171.3341 0001684 272.9195 301.9522 15.27605978    13
STARLINK-32922          
1 62926C 25027V   26188.65881944 -.00033468  00000+0 -12120-2 0  1884
2 62926  43.0004 171.5007 0001681 261.5055 262.8674 15.27600367    12
STARLINK-32891          
1 62927C 25027W   26188.70881944 -.00019765  00000+0 -71597-3 0  1889
2 62927  42.9999 171.3043 0001553 264.7910 139.6430 15.27584856    10
STARLINK-32728          
1 62948C 25029A   26188.64770833 -.00011281  00000+0 -33314-3 0  1881
2 62948  53.1592  31.8889 0001023  99.0673 178.9281 15.34410957    19
STARLINK-32857          
1 62949C 25029B   26188.65881944 -.00019173  00000+0 -56615-3 0  1886
2 62949  53.1599  31.2472 0001030  98.7763 182.9688 15.34417524    16
STARLINK-32850          
1 62950C 25029C   26188.66715278 -.00026923  00000+0 -86508-3 0  1880
2 62950  53.1594  34.4774 0001998  92.7312  11.1218 15.31740117    16
STARLINK-32875          
1 62951C 25029D   26188.70881944 -.00013835  00000+0 -40915-3 0  1880
2 62951  53.1597  30.9851 0000969 359.4393 210.2833 15.34366942    14
STARLINK-32865          
1 62952C 25029E   26188.71229167 -.00056719  00000+0 -18230-2 0  1887
2 62952  53.1601  34.2167 0000810 106.5624 272.0754 15.31747351    13
STARLINK-32884          
1 62953C 25029F   26188.68937500 -.00046427  00000+0 -13716-2 0  1880
2 62953  53.1602  31.2124 0001459  99.0052 293.4965 15.34416286    10
STARLINK-32874          
1 62954C 25029G   26188.68243056 -.00028855  00000+0 -85223-3 0  1885
2 62954  53.1600  31.1514 0000962  90.9674 309.6355 15.34416213    12
STARLINK-32880          
1 62955C 25029H   26188.69909722 -.00037501  00000+0 -12051-2 0  1882
2 62955  53.1607  34.1752 0001239  67.1619 290.1909 15.31743956    13
STARLINK-32815          
1 62956C 25029J   26188.66090278 -.00047162  00000+0 -13916-2 0  1882
2 62956  53.1600  31.5515 0000842 124.2729   6.2377 15.34456987    14
STARLINK-32879          
1 62957C 25029K   26188.67965278 -.00025140  00000+0 -80797-3 0  1889
2 62957  53.1585  34.6241 0001219  97.1973 332.6117 15.31732501    19
STARLINK-32885          
1 62958C 25029L   26188.63312500 -.00007961  00000+0 -23511-3 0  1882
2 62958  53.1606  31.5402 0000903  99.1190 307.5805 15.34408090    12
STARLINK-32896          
1 62959C 25029M   26188.69840278 -.00034421  00000+0 -11598-2 0  1889
2 62959  53.1596  35.3646 0001418  89.8239  21.5061 15.30218907    14
STARLINK-32877          
1 62960C 25029N   26188.72270833 -.00055831  00000+0 -16485-2 0  1887
2 62960  53.1600  35.0221 0001174 101.9305 259.6549 15.34438224    12
STARLINK-32889          
1 62961C 25029P   26188.65881944 -.00015707  00000+0 -46380-3 0  1887
2 62961  53.1603  35.2546 0001327 103.2134 300.1696 15.34416627    11
STARLINK-32858          
1 62962C 25029Q   26188.70812500 -.00042781  00000+0 -14411-2 0  1887
2 62962  53.1600  34.6449 0001347  92.2589  55.8066 15.30231079    14
STARLINK-32882          
1 62963C 25029R   26188.68590278 -.00020320  00000+0 -60108-3 0  1880
2 62963  53.1598  31.1568 0001357  82.0668 326.2810 15.34363360    16
STARLINK-32887          
1 62964C 25029S   26188.63798611  .00001806  00000+0  53332-4 0  1885
2 62964  53.1594  31.7953 0000970  98.6405 195.3945 15.34400400    10
STARLINK-32836          
1 62965C 25029T   26188.71715278 -.00045407  00000+0 -13411-2 0  1882
2 62965  53.1592  31.5845 0000887 104.3443 185.8318 15.34424694    10
STARLINK-32888          
1 62966C 25029U   26188.70951389  .01155100  00000+0  37683-1 0  1884
2 62966  53.1590  35.2191 0001333  94.9241 130.1650 15.30665216    16
STARLINK-32897          
1 62967C 25029V   26188.66645833 -.00029027  00000+0 -85704-3 0  1882
2 62967  53.1590  33.2399 0001382  76.0983 291.2098 15.34425853    13
STARLINK-32863          
1 62968C 25029W   26188.63659722  .00004090  00000+0  13138-3 0  1885
2 62968  53.1591  34.6677 0001190  61.8255 207.6944 15.31730632    12
STARLINK-32894          
1 62969C 25029X   26188.69284722 -.00033676  00000+0 -11342-2 0  1884
2 62969  53.1610  34.8580 0001098  46.2258 302.0144 15.30231230    18
STARLINK-32826          
1 62970C 25029Y   26188.69909722 -.00030503  00000+0 -10275-2 0  1880
2 62970  53.1601  34.7595 0001256  99.8393 317.7600 15.30223750    13
STARLINK-11543 [DTC]    
1 62981C 25031A   26188.65673611 -.00033024  00000+0 -25656-3 0  1887
2 62981  43.0001 357.9963 0001199 262.9171 109.1907 15.70849609    13
STARLINK-11458 [DTC]    
1 62982C 25031B   26188.64909722 -.00033242  00000+0 -25822-3 0  1889
2 62982  43.0002 358.2663 0001969 263.0060 335.6689 15.70851535    14
STARLINK-11417 [DTC]    
1 62983C 25031C   26188.67201389 -.00010402  00000+0 -80826-4 0  1886
2 62983  43.0001 358.6508 0001948 273.4259 244.5776 15.70833372    12
STARLINK-11544 [DTC]    
1 62984C 25031D   26188.64145833 -.00036976  00000+0 -28723-3 0  1886
2 62984  43.0002 358.2366 0001925 273.1801 312.3062 15.70853293    13
STARLINK-11582 [DTC]    
1 62985C 25031E   26188.65534722 -.00065645  00000+0 -51003-3 0  1889
2 62985  43.0001 358.3764 0001205 255.0235 318.9191 15.70864121    14
STARLINK-11571 [DTC]    
1 62986C 25031F   26188.69145833 -.00000040  00000+0 -30799-6 0  1885
2 62986  42.9999 357.7101 0001547 271.1567 327.6316 15.70828780    10
STARLINK-11539 [DTC]    
1 62987C 25031G   26188.72270833 -.00033625  00000+0 -26128-3 0  1882
2 62987  43.0000 357.8955 0001024 266.3788 359.0178 15.70845576    12
STARLINK-11542 [DTC]    
1 62988C 25031H   26188.68868056 -.00010887  00000+0 -84605-4 0  1888
2 62988  43.0000 357.8753 0001671 267.0422 255.8976 15.70831373    19
STARLINK-11573 [DTC]    
1 62989C 25031J   26188.64423611 -.00019983  00000+0 -15522-3 0  1886
2 62989  42.9999 358.5913 0001919 263.6339 187.2763 15.70845580    12
STARLINK-11572 [DTC]    
1 62990C 25031K   26188.71645833 -.00035546  00000+0 -27623-3 0  1886
2 62990  43.0001 357.7950 0001661 264.0428  20.9358 15.70843958    10
STARLINK-11583 [DTC]    
1 62991C 25031L   26188.70048611 -.00036267  00000+0 -28177-3 0  1883
2 62991  42.9998 358.3261 0001874 273.7912 105.5366 15.70848424    19
STARLINK-11570 [DTC]    
1 62992C 25031M   26188.70812500 -.00032136  00000+0 -24969-3 0  1886
2 62992  42.9999 358.3545 0001939 269.2839 123.2392 15.70845527    13
STARLINK-11576 [DTC]    
1 62993C 25031N   26188.66576389 -.00057015  00000+0 -44294-3 0  1880
2 62993  42.9999 358.3851 0001123 259.8649 342.9953 15.70861676    19
STARLINK-32899          
1 62994C 25031P   26188.67826389 -.00040005  00000+0 -14494-2 0  1889
2 62994  42.9990 186.0897 0001292 272.2646   9.1428 15.27590052    18
STARLINK-32819          
1 62995C 25031Q   26188.64840278 -.00031894  00000+0 -11551-2 0  1887
2 62995  43.0010 185.8165 0001573 270.5800  30.2355 15.27597102    11
STARLINK-32703          
1 62996C 25031R   26188.72618056 -.00032319  00000+0 -11704-2 0  1887
2 62996  42.9993 185.7514 0001218 279.6630 293.7412 15.27600954    14
STARLINK-32881          
1 62997C 25031S   26188.72131944 -.00028675  00000+0 -10387-2 0  1880
2 62997  43.0024 185.2679 0001537 282.1750 116.7200 15.27589423    11
STARLINK-32898          
1 62998C 25031T   26188.67895833 -.00035355  00000+0 -12789-2 0  1880
2 62998  42.9996 185.9321 0001472 278.6318  70.1719 15.27638453    13
STARLINK-32658          
1 62999C 25031U   26188.67756944 -.00033381  00000+0 -12091-2 0  1883
2 62999  43.0020 185.5670 0001517 276.1084 220.6849 15.27594226    15
STARLINK-32673          
1 63000C 25031V   26188.71506944 -.00163070  00000+0 -58952-2 0  1880
2 63000  43.0001 185.5896 0001607 253.3048 350.9386 15.27721497    10
STARLINK-32437          
1 63001C 25031W   26188.72131944 -.00030030  00000+0 -10879-2 0  1881
2 63001  43.0000 185.8968 0001320 265.4538 231.6628 15.27586303    12
STARLINK-11448 [DTC]    
1 63005C 25032A   26188.67965278 -.00054383  00000+0 -42259-3 0  1880
2 63005  43.0005 191.7180 0001623 265.1196 294.4320 15.70854223    19
STARLINK-11553 [DTC]    
1 63006C 25032B   26188.71229167 -.00028857  00000+0 -22417-3 0  1887
2 63006  43.0006 192.2682 0001646 265.5597 178.1669 15.70848175    11
STARLINK-11526 [DTC]    
1 63007C 25032C   26188.64076389 -.00011315  00000+0 -87852-4 0  1882
2 63007  43.0005 191.8774 0001678 286.6328  82.7825 15.70853389    16
STARLINK-11405 [DTC]    
1 63008C 25032D   26188.66993056 -.00024020  00000+0 -18657-3 0  1887
2 63008  43.0005 192.3861 0001684 262.7504 356.0971 15.70849811    12
STARLINK-11586 [DTC]    
1 63009C 25032E   26188.63243056  .00004464  00000+0  34674-4 0  1889
2 63009  43.0004 192.3753 0001670 252.9710 248.8976 15.70833148    16
